[{"OBJECT_NAME":"STARLINK-31833","OBJECT_ID":"2024-090D","EPOCH":"2026-03-09T07:59:23.607168","MEAN_MOTION":15.27570677,"ECCENTRICITY":9.651e-5,"INCLINATION":42.9981,"RA_OF_ASC_NODE":185.6756,"ARG_OF_PERICENTER":272.3571,"MEAN_ANOMALY":87.717,"EPHEMERIS_TYPE":0,"CLASSIFICATION_TYPE":"U","NORAD_CAT_ID":59733,"ELEMENT_SET_NO":999,"REV_AT_EPOCH":10338,"BSTAR":0.00028786771,"MEAN_MOTION_DOT":7.666e-5,"MEAN_MOTION_DDOT":0},{"OBJECT_NAME":"COSMOS 2251 DEB","OBJECT_ID":"1993-036BN","EPOCH":"2026-03-09T17:54:27.582912","MEAN_MOTION":15.31852549,"ECCENTRICITY":0.0043021,"INCLINATION":74.0291,"RA_OF_ASC_NODE":318.0178,"ARG_OF_PERICENTER":323.0874,"MEAN_ANOMALY":36.7369,"EPHEMERIS_TYPE":0,"CLASSIFICATION_TYPE":"U","NORAD_CAT_ID":33821,"ELEMENT_SET_NO":999,"REV_AT_EPOCH":76330,"BSTAR":0.0011195846,"MEAN_MOTION_DOT":0.00035571,"MEAN_MOTION_DDOT":0}]
